{"fetched_at":"2026-07-13T07:47:54.571Z","source":"https://celestrak.org/NORAD/elements/gp.php?GROUP=oneweb&FORMAT=JSON","constellation":"oneweb","records":[{"OBJECT_NAME":"ONEWEB-0229","OBJECT_ID":"2021-045N","EPOCH":"2026-07-12T12:58:58.772928","CLASSIFICATION_TYPE":"U","MEAN_MOTION":13.15548737,"ECCENTRICITY":0.0002039,"INCLINATION":87.8998,"RA_OF_ASC_NODE":254.1416,"ARG_OF_PERICENTER":103.1019,"MEAN_ANOMALY":257.0339,"EPHEMERIS_TYPE":0,"NORAD_CAT_ID":48779,"ELEMENT_SET_NO":999,"REV_AT_EPOCH":24774,"BSTAR":0.00068092,"MEAN_MOTION_DOT":0.00000269,"MEAN_MOTION_DDOT":0},{"OBJECT_NAME":"ONEWEB-0228","OBJECT_ID":"2021-045P","EPOCH":"2026-07-12T17:26:08.007648","CLASSIFICATION_TYPE":"U","MEAN_MOTION":13.15549199,"ECCENTRICITY":0.0002089,"INCLINATION":87.8998,"RA_OF_ASC_NODE":254.0978,"ARG_OF_PERICENTER":102.5033,"MEAN_ANOMALY":257.6331,"EPHEMERIS_TYPE":0,"NORAD_CAT_ID":48780,"ELEMENT_SET_NO":999,"REV_AT_EPOCH":24768,"BSTAR":-0.00024093,"MEAN_MOTION_DOT":-7.8e-7,"MEAN_MOTION_DDOT":0},{"OBJECT_NAME":"ONEWEB-0232","OBJECT_ID":"2021-045Q","EPOCH":"2026-07-12T16:49:26.421600","CLASSIFICATION_TYPE":"U","MEAN_MOTION":13.15547996,"ECCENTRICITY":0.0002174,"INCLINATION":87.9001,"RA_OF_ASC_NODE":254.1027,"ARG_OF_PERICENTER":99.9024,"MEAN_ANOMALY":260.2351,"EPHEMERIS_TYPE":0,"NORAD_CAT_ID":48781,"ELEMENT_SET_NO":999,"REV_AT_EPOCH":24800,"BSTAR":0.00052711,"MEAN_MOTION_DOT":0.00000211,"MEAN_MOTION_DDOT":0},{"OBJECT_NAME":"ONEWEB-0231","OBJECT_ID":"2021-045R","EPOCH":"2026-07-12T16:17:29.302368","CLASSIFICATION_TYPE":"U","MEAN_MOTION":13.15547632,"ECCENTRICITY":0.0002206,"INCLINATION":87.8995,"RA_OF_ASC_NODE":254.1188,"ARG_OF_PERICENTER":103.3557,"MEAN_ANOMALY":256.7819,"EPHEMERIS_TYPE":0,"NORAD_CAT_ID":48782,"ELEMENT_SET_NO":999,"REV_AT_EPOCH":24769,"BSTAR":0.00035951,"MEAN_MOTION_DOT":0.00000148,"MEAN_MOTION_DDOT":0},{"OBJECT_NAME":"ONEWEB-0234","OBJECT_ID":"2021-045S","EPOCH":"2026-07-12T17:12:03.014784","CLASSIFICATION_TYPE":"U","MEAN_MOTION":13.15547396,"ECCENTRICITY":0.0002511,"INCLINATION":87.9,"RA_OF_ASC_NODE":254.0928,"ARG_OF_PERICENTER":102.7315,"MEAN_ANOMALY":257.4096,"EPHEMERIS_TYPE":0,"NORAD_CAT_ID":48783,"ELEMENT_SET_NO":999,"REV_AT_EPOCH":24783,"BSTAR":0.00016693,"MEAN_MOTION_DOT":7.6e-7,"MEAN_MOTION_DDOT":0},{"OBJECT_NAME":"ONEWEB-0238","OBJECT_ID":"2021-045T","EPOCH":"2026-07-12T17:12:25.549632","CLASSIFICATION_TYPE":"U","MEAN_MOTION":13.15548501,"ECCENTRICITY":0.0002224,"INCLINATION":87.9009,"RA_OF_ASC_NODE":254.0883,"ARG_OF_PERICENTER":104.7757,"MEAN_ANOMALY":255.362,"EPHEMERIS_TYPE":0,"NORAD_CAT_ID":48784,"ELEMENT_SET_NO":999,"REV_AT_EPOCH":24773,"BSTAR":0.00010783,"MEAN_MOTION_DOT":5.3e-7,"MEAN_MOTION_DDOT":0},{"OBJECT_NAME":"ONEWEB-0240","OBJECT_ID":"2021-045U","EPOCH":"2026-07-12T15:53:31.422336","CLASSIFICATION_TYPE":"U","MEAN_MOTION":13.15548817,"ECCENTRICITY":0.000236,"INCLINATION":87.8996,"RA_OF_ASC_NODE":254.1108,"ARG_OF_PERICENTER":104.8282,"MEAN_ANOMALY":255.311,"EPHEMERIS_TYPE":0,"NORAD_CAT_ID":48785,"ELEMENT_SET_NO":999,"REV_AT_EPOCH":24775,"BSTAR":-0.00031045,"MEAN_MOTION_DOT":-0.00000104,"MEAN_MOTION_DDOT":0},{"OBJECT_NAME":"ONEWEB-0246","OBJECT_ID":"2021-045V","EPOCH":"2026-07-12T15:45:32.566752","CLASSIFICATION_TYPE":"U","MEAN_MOTION":13.15547883,"ECCENTRICITY":0.0002025,"INCLINATION":87.8994,"RA_OF_ASC_NODE":254.1156,"ARG_OF_PERICENTER":98.914,"MEAN_ANOMALY":261.2219,"EPHEMERIS_TYPE":0,"NORAD_CAT_ID":48786,"ELEMENT_SET_NO":999,"REV_AT_EPOCH":24762,"BSTAR":-0.00022615,"MEAN_MOTION_DOT":-7.2e-7,"MEAN_MOTION_DDOT":0},{"OBJECT_NAME":"ONEWEB-0210","OBJECT_ID":"2021-045W","EPOCH":"2026-07-12T16:58:33.540096","CLASSIFICATION_TYPE":"U","MEAN_MOTION":13.15548009,"ECCENTRICITY":0.0001735,"INCLINATION":87.8995,"RA_OF_ASC_NODE":254.1029,"ARG_OF_PERICENTER":132.4109,"MEAN_ANOMALY":227.7168,"EPHEMERIS_TYPE":0,"NORAD_CAT_ID":48787,"ELEMENT_SET_NO":999,"REV_AT_EPOCH":24767,"BSTAR":0.00024571,"MEAN_MOTION_DOT":0.00000105,"MEAN_MOTION_DDOT":0},{"OBJECT_NAME":"ONEWEB-0214","OBJECT_ID":"2021-045X","EPOCH":"2026-07-12T17:11:05.340192","CLASSIFICATION_TYPE":"U","MEAN_MOTION":13.15546713,"ECCENTRICITY":0.00017,"INCLINATION":87.9006,"RA_OF_ASC_NODE":254.096,"ARG_OF_PERICENTER":111.3849,"MEAN_ANOMALY":248.7463,"EPHEMERIS_TYPE":0,"NORAD_CAT_ID":48788,"ELEMENT_SET_NO":999,"REV_AT_EPOCH":24764,"BSTAR":-0.00013757,"MEAN_MOTION_DOT":-3.9e-7,"MEAN_MOTION_DDOT":0},{"OBJECT_NAME":"ONEWEB-0221","OBJECT_ID":"2021-045Y","EPOCH":"2026-07-12T17:21:22.956768","CLASSIFICATION_TYPE":"U","MEAN_MOTION":13.15547976,"ECCENTRICITY":0.0002203,"INCLINATION":87.9001,"RA_OF_ASC_NODE":254.1041,"ARG_OF_PERICENTER":104.3354,"MEAN_ANOMALY":255.8021,"EPHEMERIS_TYPE":0,"NORAD_CAT_ID":48789,"ELEMENT_SET_NO":999,"REV_AT_EPOCH":24773,"BSTAR":-0.000044888,"MEAN_MOTION_DOT":-4e-8,"MEAN_MOTION_DDOT":0},{"OBJECT_NAME":"ONEWEB-0213","OBJECT_ID":"2021-045Z","EPOCH":"2026-07-12T17:05:24.518976","CLASSIFICATION_TYPE":"U","MEAN_MOTION":13.15548464,"ECCENTRICITY":0.0002034,"INCLINATION":87.8996,"RA_OF_ASC_NODE":254.1102,"ARG_OF_PERICENTER":107.769,"MEAN_ANOMALY":252.3662,"EPHEMERIS_TYPE":0,"NORAD_CAT_ID":48790,"ELEMENT_SET_NO":999,"REV_AT_EPOCH":24779,"BSTAR":0.00013594,"MEAN_MOTION_DOT":6.4e-7,"MEAN_MOTION_DDOT":0},{"OBJECT_NAME":"ONEWEB-0212","OBJECT_ID":"2021-045AA","EPOCH":"2026-07-12T16:32:18.343680","CLASSIFICATION_TYPE":"U","MEAN_MOTION":13.15547019,"ECCENTRICITY":0.0002155,"INCLINATION":87.8992,"RA_OF_ASC_NODE":254.1096,"ARG_OF_PERICENTER":100.1372,"MEAN_ANOMALY":260.0001,"EPHEMERIS_TYPE":0,"NORAD_CAT_ID":48791,"ELEMENT_SET_NO":999,"REV_AT_EPOCH":24778,"BSTAR":0.000095817,"MEAN_MOTION_DOT":4.9e-7,"MEAN_MOTION_DDOT":0},{"OBJECT_NAME":"ONEWEB-0227","OBJECT_ID":"2021-045AB","EPOCH":"2026-07-12T16:31:10.873056","CLASSIFICATION_TYPE":"U","MEAN_MOTION":13.15547682,"ECCENTRICITY":0.0002115,"INCLINATION":87.8991,"RA_OF_ASC_NODE":254.1094,"ARG_OF_PERICENTER":101.5691,"MEAN_ANOMALY":258.5677,"EPHEMERIS_TYPE":0,"NORAD_CAT_ID":48792,"ELEMENT_SET_NO":999,"REV_AT_EPOCH":24773,"BSTAR":0.00013451,"MEAN_MOTION_DOT":6.3e-7,"MEAN_MOTION_DDOT":0},{"OBJECT_NAME":"ONEWEB-0226","OBJECT_ID":"2021-045AC","EPOCH":"2026-07-12T16:22:02.974368","CLASSIFICATION_TYPE":"U","MEAN_MOTION":13.15547764,"ECCENTRICITY":0.0001956,"INCLINATION":87.8985,"RA_OF_ASC_NODE":254.116,"ARG_OF_PERICENTER":107.4745,"MEAN_ANOMALY":252.6599,"EPHEMERIS_TYPE":0,"NORAD_CAT_ID":48793,"ELEMENT_SET_NO":999,"REV_AT_EPOCH":24770,"BSTAR":0.00039817,"MEAN_MOTION_DOT":0.00000163,"MEAN_MOTION_DDOT":0},{"OBJECT_NAME":"ONEWEB-0224","OBJECT_ID":"2021-045AD","EPOCH":"2026-07-12T17:19:06.060288","CLASSIFICATION_TYPE":"U","MEAN_MOTION":13.15549221,"ECCENTRICITY":0.0002921,"INCLINATION":87.8988,"RA_OF_ASC_NODE":254.1395,"ARG_OF_PERICENTER":99.8375,"MEAN_ANOMALY":260.3085,"EPHEMERIS_TYPE":0,"NORAD_CAT_ID":48794,"ELEMENT_SET_NO":999,"REV_AT_EPOCH":24763,"BSTAR":0.000024069,"MEAN_MOTION_DOT":2.2e-7,"MEAN_MOTION_DDOT":0}]}
