ONEWEB-0229             
1 48779U 21045N   26193.54095802  .00000269  00000+0  68092-3 0  9995
2 48779  87.8998 254.1416 0002039 103.1019 257.0339 13.15548737247745
ONEWEB-0228             
1 48780U 21045P   26193.72648157 -.00000078  00000+0 -24093-3 0  9997
2 48780  87.8998 254.0978 0002089 102.5033 257.6331 13.15549199247687
ONEWEB-0232             
1 48781U 21045Q   26193.70100025  .00000211  00000+0  52711-3 0  9998
2 48781  87.9001 254.1027 0002174  99.9024 260.2351 13.15547996248006
ONEWEB-0231             
1 48782U 21045R   26193.67881137  .00000148  00000+0  35951-3 0  9991
2 48782  87.8995 254.1188 0002206 103.3557 256.7819 13.15547632247693
ONEWEB-0234             
1 48783U 21045S   26193.71670156  .00000076  00000+0  16693-3 0  9996
2 48783  87.9000 254.0928 0002511 102.7315 257.4096 13.15547396247835
ONEWEB-0238             
1 48784U 21045T   26193.71696238  .00000053  00000+0  10783-3 0  9995
2 48784  87.9009 254.0883 0002224 104.7757 255.3620 13.15548501247736
ONEWEB-0240             
1 48785U 21045U   26193.66216924 -.00000104  00000+0 -31045-3 0  9993
2 48785  87.8996 254.1108 0002360 104.8282 255.3110 13.15548817247753
ONEWEB-0246             
1 48786U 21045V   26193.65662693 -.00000072  00000+0 -22615-3 0  9998
2 48786  87.8994 254.1156 0002025  98.9140 261.2219 13.15547883247623
ONEWEB-0210             
1 48787U 21045W   26193.70733264  .00000105  00000+0  24571-3 0  9996
2 48787  87.8995 254.1029 0001735 132.4109 227.7168 13.15548009247676
ONEWEB-0214             
1 48788U 21045X   26193.71603403 -.00000039  00000+0 -13757-3 0  9991
2 48788  87.9006 254.0960 0001700 111.3849 248.7463 13.15546713247641
ONEWEB-0221             
1 48789U 21045Y   26193.72318237 -.00000004  00000+0 -44888-4 0  9993
2 48789  87.9001 254.1041 0002203 104.3354 255.8021 13.15547976247731
ONEWEB-0213             
1 48790U 21045Z   26193.71208934  .00000064  00000+0  13594-3 0  9999
2 48790  87.8996 254.1102 0002034 107.7690 252.3662 13.15548464247797
ONEWEB-0212             
1 48791U 21045AA  26193.68910120  .00000049  00000+0  95817-4 0  9995
2 48791  87.8992 254.1096 0002155 100.1372 260.0001 13.15547019247781
ONEWEB-0227             
1 48792U 21045AB  26193.68832029  .00000063  00000+0  13451-3 0  9996
2 48792  87.8991 254.1094 0002115 101.5691 258.5677 13.15547682247736
ONEWEB-0226             
1 48793U 21045AC  26193.68197887  .00000163  00000+0  39817-3 0  9998
2 48793  87.8985 254.1160 0001956 107.4745 252.6599 13.15547764247707
ONEWEB-0224             
1 48794U 21045AD  26193.72159792  .00000022  00000+0  24069-4 0  9995
2 48794  87.8988 254.1395 0002921  99.8375 260.3085 13.15549221247635
